H1 CPF  1  DGF 2022 02 22 12  5531 larets     NONE      
H2   304206 5557    27944 2022 02 22 00 00 00 2022 03 01 00 00 00    30 1 1  0 0 0
H5  0.0650
H9
10 0 59634  61200.000000  0       5069385.728      -4582719.832       1791670.389
10 0 59634  61230.000000  0       5076347.344      -4654044.577       1575185.191
10 0 59634  61260.000000  0       5077862.225      -4720670.790       1357091.739
10 0 59634  61290.000000  0       5073949.234      -4782506.825       1137612.602
10 0 59634  61320.000000  0       5064633.170      -4839466.021        916971.805
10 0 59634  61350.000000  0       5049944.724      -4891466.822        695394.595
10 0 59634  61380.000000  0       5029920.427      -4938432.890        473107.206
10 0 59634  61410.000000  0       5004602.589      -4980293.204        250336.623
10 0 59634  61440.000000  0       4974039.237      -5016982.166         27310.345
10 0 59634  61470.000000  0       4938284.043      -5048439.693       -195743.857
10 0 59634  61500.000000  0       4897396.248      -5074611.302       -418598.177
10 0 59634  61530.000000  0       4851440.574      -5095448.194       -641025.016
10 0 59634  61560.000000  0       4800487.131      -5110907.327       -862797.227
10 0 59634  61590.000000  0       4744611.315      -5120951.478      -1083688.346
10 0 59634  61620.000000  0       4683893.708      -5125549.306      -1303472.833
10 0 59634  61650.000000  0       4618419.964      -5124675.406      -1521926.304
10 0 59634  61680.000000  0       4548280.695      -5118310.355      -1738825.772
10 0 59634  61710.000000  0       4473571.350      -5106440.750      -1953949.873
10 0 59634  61740.000000  0       4394392.087      -5089059.240      -2167079.105
10 0 59634  61770.000000  0       4310847.643      -5066164.551      -2377996.055
10 0 59634  61800.000000  0       4223047.191      -5037761.502      -2586485.622
10 0 59634  61830.000000  0       4131104.202      -5003861.014      -2792335.244
10 0 59634  61860.000000  0       4035136.294      -4964480.116      -2995335.118
10 0 59634  61890.000000  0       3935265.084      -4919641.935      -3195278.409
10 0 59634  61920.000000  0       3831616.032      -4869375.694      -3391961.471
10 0 59634  61950.000000  0       3724318.284      -4813716.688      -3585184.051
10 0 59634  61980.000000  0       3613504.510      -4752706.258      -3774749.501
10 0 59634  62010.000000  0       3499310.736      -4686391.763      -3960464.970
10 0 59634  62040.000000  0       3381876.174      -4614826.534      -4142141.610
10 0 59634  62070.000000  0       3261343.052      -4538069.834      -4319594.760
10 0 59634  62100.000000  0       3137856.436      -4456186.796      -4492644.137
10 0 59634  62130.000000  0       3011564.054      -4369248.368      -4661114.011
10 0 59634  62160.000000  0       2882616.115      -4277331.243      -4824833.383
10 0 59634  62190.000000  0       2751165.126      -4180517.788      -4983636.151
10 0 59634  62220.000000  0       2617365.716      -4078895.962      -5137361.273
10 0 59634  62250.000000  0       2481374.445      -3972559.230      -5285852.925
10 0 59634  62280.000000  0       2343349.629      -3861606.479      -5428960.647
10 0 59634  62310.000000  0       2203451.152      -3746141.919      -5566539.498
10 0 59634  62340.000000  0       2061840.277      -3626274.979      -5698450.195
10 0 59634  62370.000000  0       1918679.466      -3502120.206      -5824559.248
10 0 59634  62400.000000  0       1774132.184      -3373797.144      -5944739.088
10 0 59634  62430.000000  0       1628362.721      -3241430.221      -6058868.193
10 0 59634  62460.000000  0       1481535.998      -3105148.626      -6166831.204
10 0 59634  62490.000000  0       1333817.381      -2965086.172      -6268519.037
10 0 59634  62520.000000  0       1185372.497      -2821381.169      -6363828.988
10 0 59634  62550.000000  0       1036367.045      -2674176.274      -6452664.828
10 0 59634  62580.000000  0        886966.611      -2523618.355      -6534936.895
10 0 59634  62610.000000  0        737336.489      -2369858.336      -6610562.174
10 0 59634  62640.000000  0        587641.496      -2213051.045      -6679464.377
10 0 59634  62670.000000  0        438045.795      -2053355.060      -6741574.015
10 0 59634  62700.000000  0        288712.713      -1890932.542      -6796828.455
10 0 59634  62730.000000  0        139804.571      -1725949.074      -6845171.985
10 0 59634  62760.000000  0         -8517.496      -1558573.492      -6886555.861
10 0 59634  62790.000000  0       -156093.704      -1388977.709      -6920938.352
10 0 59634  62820.000000  0       -302765.794      -1217336.544      -6948284.781
10 0 59634  62850.000000  0       -448377.196      -1043827.543      -6968567.554
10 0 59634  62880.000000  0       -592773.197       -868630.795      -6981766.191
10 0 59634  62910.000000  0       -735801.103       -691928.749      -6987867.339
10 0 59634  62940.000000  0       -877310.401       -513906.023      -6986864.789
10 0 59634  62970.000000  0      -1017152.912       -334749.214      -6978759.478
10 0 59634  63000.000000  0      -1155182.950       -154646.711      -6963559.488
10 0 59634  63030.000000  0      -1291257.467         26211.509      -6941280.035
10 0 59634  63060.000000  0      -1425236.205        207634.069      -6911943.464
10 0 59634  63090.000000  0      -1556981.833        389428.399      -6875579.222
10 0 59634  63120.000000  0      -1686360.091        571400.935      -6832223.834
10 0 59634  63150.000000  0      -1813239.926        753357.324      -6781920.870
10 0 59634  63180.000000  0      -1937493.618        935102.629      -6724720.903
10 0 59634  63210.000000  0      -2058996.914       1116441.538      -6660681.465
10 0 59634  63240.000000  0      -2177629.146       1297178.565      -6589866.990
10 0 59634  63270.000000  0      -2293273.358       1477118.261      -6512348.760
10 0 59634  63300.000000  0      -2405816.417       1656065.422      -6428204.842
10 0 59634  63330.000000  0      -2515149.132       1833825.302      -6337520.011
10 0 59634  63360.000000  0      -2621166.357       2010203.826      -6240385.680
10 0 59634  63390.000000  0      -2723767.095       2185007.801      -6136899.806
10 0 59634  63420.000000  0      -2822854.597       2358045.129      -6027166.803
10 0 59634  63450.000000  0      -2918336.451       2529125.016      -5911297.447
10 0 59634  63480.000000  0      -3010124.679       2698058.189      -5789408.767
10 0 59634  63510.000000  0      -3098135.816       2864657.102      -5661623.940
10 0 59634  63540.000000  0      -3182290.992       3028736.150      -5528072.170
10 0 59634  63570.000000  0      -3262516.010       3190111.880      -5388888.563
10 0 59634  63600.000000  0      -3338741.411       3348603.197      -5244214.001
10 0 59634  63630.000000  0      -3410902.536       3504031.572      -5094194.999
10 0 59634  63660.000000  0      -3478939.592       3656221.247      -4938983.566
10 0 59634  63690.000000  0      -3542797.693       3804999.439      -4778737.052
10 0 59634  63720.000000  0      -3602426.917       3950196.538      -4613617.996
10 0 59634  63750.000000  0      -3657782.335       4091646.309      -4443793.962
10 0 59634  63780.000000  0      -3708824.055       4229186.082      -4269437.374
10 0 59634  63810.000000  0      -3755517.244       4362656.945      -4090725.342
10 0 59634  63840.000000  0      -3797832.151       4491903.932      -3907839.486
10 0 59634  63870.000000  0      -3835744.121       4616776.208      -3720965.756
10 0 59634  63900.000000  0      -3869233.609       4737127.246      -3530294.249
10 0 59634  63930.000000  0      -3898286.190       4852815.011      -3336019.015
10 0 59634  63960.000000  0      -3922892.552       4963702.130      -3138337.858
10 0 59634  63990.000000  0      -3943048.498       5069656.060      -2937452.139
10 0 59634  64020.000000  0      -3958754.927       5170549.249      -2733566.567
10 0 59634  64050.000000  0      -3970017.819       5266259.300      -2526888.993
10 0 59634  64080.000000  0      -3976848.210       5356669.121      -2317630.193
10 0 59634  64110.000000  0      -3979262.162       5441667.075      -2106003.657
10 0 59634  64140.000000  0      -3977280.725       5521147.125      -1892225.359
10 0 59634  64170.000000  0      -3970929.898       5595008.969      -1676513.539
10 0 59634  64200.000000  0      -3960240.576       5663158.172      -1459088.470
10 0 59634  64230.000000  0      -3945248.497       5725506.290      -1240172.224
10 0 59634  64260.000000  0      -3925994.175       5781970.981      -1019988.440
10 0 59634  64290.000000  0      -3902522.835       5832476.106       -798762.088
10 0 59634  64320.000000  0      -3874884.342       5876951.835       -576719.241
10 0 59634  64350.000000  0      -3843133.127       5915334.742       -354086.841
10 0 59634  64380.000000  0      -3807328.108       5947567.896       -131092.455
10 0 59634  64410.000000  0      -3767532.599       5973600.945         92035.970
10 0 59634  64440.000000  0      -3723814.219       5993390.179        315070.345
10 0 59634  64470.000000  0      -3676244.785       6006898.600        537782.684
10 0 59634  64500.000000  0      -3624900.216       6014095.976        759945.340
10 0 59634  64530.000000  0      -3569860.419       6014958.892        981331.251
10 0 59634  64560.000000  0      -3511209.178       6009470.792       1201714.177
10 0 59634  64590.000000  0      -3449034.031       5997622.006       1420868.946
10 0 59634  64620.000000  0      -3383426.147       5979409.775       1638571.687
10 0 59634  64650.000000  0      -3314480.201       5954838.262       1854600.068
10 0 59634  64680.000000  0      -3242294.242       5923918.559       2068733.527
10 0 59634  64710.000000  0      -3166969.554       5886668.681       2280753.502
10 0 59634  64740.000000  0      -3088610.526       5843113.562       2490443.660
10 0 59634  64770.000000  0      -3007324.504       5793285.027       2697590.117
99
